DELTA 2 R/B(1)          
1 20453U 90008B   25360.50758829  .00047117  00000+0  72659-3 0  9992
2 20453  35.6068 291.5534 0109626 303.1558  55.8697 15.46375707914764
COSMOS 2058             
1 20465U 90010A   25360.80154846  .00005237  00000+0  31505-3 0  9992
2 20465  82.4707 119.2001 0009629 219.9612 140.0910 15.10609202931236
SL-14 R/B               
1 20466U 90010B   25360.91014254  .00000591  00000+0  68819-4 0  9990
2 20466  82.5024 335.7377 0019860 175.1007 185.0406 14.83484855917697
SL-14 R/B               
1 20511U 90018B   25360.85791963  .00000571  00000+0  68818-4 0  9998
2 20511  82.5220 291.1697 0015789 337.0190  23.0316 14.82061308911793
HST                     
1 20580U 90037B   25360.83318851  .00007187  00000+0  24593-3 0  9995
2 20580  28.4656 176.5474 0002502  39.2777 320.7999 15.28224765762158
SL-16 R/B               
1 20625U 90046B   25360.67232749 -.00000070  00000+0 -11521-4 0  9992
2 20625  70.9992  91.2626 0012328  49.3333 310.8859 14.14997355838067
COSMOS 2084             
1 20663U 90055A   25360.98563218  .00003163  00000+0  23335-3 0  9995
2 20663  62.7887 223.4496 0029423 176.5916 183.5390 15.05102629925378
SL-6 R/B(2)             
1 20666U 90055D   25360.73797823  .00002761  00000+0  21754-3 0  9998
2 20666  62.7828 141.8494 0014375 318.4066  41.5938 15.03140342927229
SL-8 R/B                
1 20775U 90078B   25360.93713745  .00017004  00000+0  52455-3 0  9995
2 20775  82.9059 316.5974 0369901 258.0853  97.8676 14.86438111798486
SL-8 R/B                
1 21088U 91006B   25360.90473708  .00000103  00000+0  87837-4 0  9999
2 21088  82.9413 224.1766 0021328 237.7260 132.6220 13.77492776754059
OKEAN-3                 
1 21397U 91039A   25360.85179040  .00003154  00000+0  22476-3 0  9990
2 21397  82.5161  47.3868 0013646 212.0196 148.0202 15.04205132854089
COSMOS 2151             
1 21422U 91042A   25360.90153964  .00002949  00000+0  23644-3 0  9995
2 21422  82.4967 153.8552 0011471 309.6852  50.3360 14.99741721852282
