CCSDS_OMM_VERS = 2.0
CREATION_DATE  = 
ORIGINATOR     = 

OBJECT_NAME    = DELTA 2 R/B(1)
OBJECT_ID      = 1990-008B
CENTER_NAME    = EARTH
REF_FRAME      = TEME
TIME_SYSTEM    = UTC
MEAN_ELEMENT_THEORY = SGP/SGP4

EPOCH          = 2025-12-26T12:10:55.628256
MEAN_MOTION    = 15.46375707
ECCENTRICITY   = .0109626
INCLINATION    = 35.6068
RA_OF_ASC_NODE = 291.5534
ARG_OF_PERICENTER = 303.1558
MEAN_ANOMALY   = 55.8697

EPHEMERIS_TYPE = 0
CLASSIFICATION_TYPE = U
NORAD_CAT_ID   = 20453
ELEMENT_SET_NO = 999
REV_AT_EPOCH   = 91476
BSTAR          = .72659E-3
MEAN_MOTION_DOT = .47117E-3
MEAN_MOTION_DDOT = 0

CCSDS_OMM_VERS = 2.0
CREATION_DATE  = 
ORIGINATOR     = 

OBJECT_NAME    = COSMOS 2058
OBJECT_ID      = 1990-010A
CENTER_NAME    = EARTH
REF_FRAME      = TEME
TIME_SYSTEM    = UTC
MEAN_ELEMENT_THEORY = SGP/SGP4

EPOCH          = 2025-12-26T19:14:13.786944
MEAN_MOTION    = 15.10609202
ECCENTRICITY   = .00096296
INCLINATION    = 82.4707
RA_OF_ASC_NODE = 119.2001
ARG_OF_PERICENTER = 219.9612
MEAN_ANOMALY   = 140.0910

EPHEMERIS_TYPE = 0
CLASSIFICATION_TYPE = U
NORAD_CAT_ID   = 20465
ELEMENT_SET_NO = 999
REV_AT_EPOCH   = 93123
BSTAR          = .31505459E-3
MEAN_MOTION_DOT = .5237E-4
MEAN_MOTION_DDOT = 0

CCSDS_OMM_VERS = 2.0
CREATION_DATE  = 
ORIGINATOR     = 

OBJECT_NAME    = SL-14 R/B
OBJECT_ID      = 1990-010B
CENTER_NAME    = EARTH
REF_FRAME      = TEME
TIME_SYSTEM    = UTC
MEAN_ELEMENT_THEORY = SGP/SGP4

EPOCH          = 2025-12-26T21:50:36.315456
MEAN_MOTION    = 14.83484855
ECCENTRICITY   = .00198608
INCLINATION    = 82.5024
RA_OF_ASC_NODE = 335.7377
ARG_OF_PERICENTER = 175.1007
MEAN_ANOMALY   = 185.0406

EPHEMERIS_TYPE = 0
CLASSIFICATION_TYPE = U
NORAD_CAT_ID   = 20466
ELEMENT_SET_NO = 999
REV_AT_EPOCH   = 91769
BSTAR          = .68819141E-4
MEAN_MOTION_DOT = .591E-5
MEAN_MOTION_DDOT = 0

CCSDS_OMM_VERS = 2.0
CREATION_DATE  = 
ORIGINATOR     = 

OBJECT_NAME    = SL-14 R/B
OBJECT_ID      = 1990-018B
CENTER_NAME    = EARTH
REF_FRAME      = TEME
TIME_SYSTEM    = UTC
MEAN_ELEMENT_THEORY = SGP/SGP4

EPOCH          = 2025-12-26T20:35:24.256032
MEAN_MOTION    = 14.82061308
ECCENTRICITY   = .00157895
INCLINATION    = 82.5220
RA_OF_ASC_NODE = 291.1697
ARG_OF_PERICENTER = 337.0190
MEAN_ANOMALY   = 23.0316

EPHEMERIS_TYPE = 0
CLASSIFICATION_TYPE = U
NORAD_CAT_ID   = 20511
ELEMENT_SET_NO = 999
REV_AT_EPOCH   = 91179
BSTAR          = .68818215E-4
MEAN_MOTION_DOT = .571E-5
MEAN_MOTION_DDOT = 0

CCSDS_OMM_VERS = 2.0
CREATION_DATE  = 
ORIGINATOR     = 

OBJECT_NAME    = HST
OBJECT_ID      = 1990-037B
CENTER_NAME    = EARTH
REF_FRAME      = TEME
TIME_SYSTEM    = UTC
MEAN_ELEMENT_THEORY = SGP/SGP4

EPOCH          = 2025-12-26T19:59:47.487264
MEAN_MOTION    = 15.28224765
ECCENTRICITY   = .0002502
INCLINATION    = 28.4656
RA_OF_ASC_NODE = 176.5474
ARG_OF_PERICENTER = 39.2777
MEAN_ANOMALY   = 320.7999

EPHEMERIS_TYPE = 0
CLASSIFICATION_TYPE = U
NORAD_CAT_ID   = 20580
ELEMENT_SET_NO = 999
REV_AT_EPOCH   = 76215
BSTAR          = .24593073E-3
MEAN_MOTION_DOT = .7187E-4
MEAN_MOTION_DDOT = 0

CCSDS_OMM_VERS = 2.0
CREATION_DATE  = 
ORIGINATOR     = 

OBJECT_NAME    = SL-16 R/B
OBJECT_ID      = 1990-046B
CENTER_NAME    = EARTH
REF_FRAME      = TEME
TIME_SYSTEM    = UTC
MEAN_ELEMENT_THEORY = SGP/SGP4

EPOCH          = 2025-12-26T16:08:09.095136
MEAN_MOTION    = 14.14997355
ECCENTRICITY   = .00123289
INCLINATION    = 70.9992
RA_OF_ASC_NODE = 91.2626
ARG_OF_PERICENTER = 49.3333
MEAN_ANOMALY   = 310.8859

EPHEMERIS_TYPE = 0
CLASSIFICATION_TYPE = U
NORAD_CAT_ID   = 20625
ELEMENT_SET_NO = 999
REV_AT_EPOCH   = 83806
BSTAR          = -.11520783E-4
MEAN_MOTION_DOT = -.7E-6
MEAN_MOTION_DDOT = 0

CCSDS_OMM_VERS = 2.0
CREATION_DATE  = 
ORIGINATOR     = 

OBJECT_NAME    = COSMOS 2084
OBJECT_ID      = 1990-055A
CENTER_NAME    = EARTH
REF_FRAME      = TEME
TIME_SYSTEM    = UTC
MEAN_ELEMENT_THEORY = SGP/SGP4

EPOCH          = 2025-12-26T23:39:18.620352
MEAN_MOTION    = 15.05102629
ECCENTRICITY   = .00294238
INCLINATION    = 62.7887
RA_OF_ASC_NODE = 223.4496
ARG_OF_PERICENTER = 176.5916
MEAN_ANOMALY   = 183.5390

EPHEMERIS_TYPE = 0
CLASSIFICATION_TYPE = U
NORAD_CAT_ID   = 20663
ELEMENT_SET_NO = 999
REV_AT_EPOCH   = 92537
BSTAR          = .23335402E-3
MEAN_MOTION_DOT = .3163E-4
MEAN_MOTION_DDOT = 0

CCSDS_OMM_VERS = 2.0
CREATION_DATE  = 
ORIGINATOR     = 

OBJECT_NAME    = SL-6 R/B(2)
OBJECT_ID      = 1990-055D
CENTER_NAME    = EARTH
REF_FRAME      = TEME
TIME_SYSTEM    = UTC
MEAN_ELEMENT_THEORY = SGP/SGP4

EPOCH          = 2025-12-26T17:42:41.319072
MEAN_MOTION    = 15.03140342
ECCENTRICITY   = .00143754
INCLINATION    = 62.7828
RA_OF_ASC_NODE = 141.8494
ARG_OF_PERICENTER = 318.4066
MEAN_ANOMALY   = 41.5938

EPHEMERIS_TYPE = 0
CLASSIFICATION_TYPE = U
NORAD_CAT_ID   = 20666
ELEMENT_SET_NO = 999
REV_AT_EPOCH   = 92722
BSTAR          = .21753792E-3
MEAN_MOTION_DOT = .2761E-4
MEAN_MOTION_DDOT = 0

CCSDS_OMM_VERS = 2.0
CREATION_DATE  = 
ORIGINATOR     = 

OBJECT_NAME    = SL-8 R/B
OBJECT_ID      = 1990-078B
CENTER_NAME    = EARTH
REF_FRAME      = TEME
TIME_SYSTEM    = UTC
MEAN_ELEMENT_THEORY = SGP/SGP4

EPOCH          = 2025-12-26T22:29:28.675680
MEAN_MOTION    = 14.86438111
ECCENTRICITY   = .0369901
INCLINATION    = 82.9059
RA_OF_ASC_NODE = 316.5974
ARG_OF_PERICENTER = 258.0853
MEAN_ANOMALY   = 97.8676

EPHEMERIS_TYPE = 0
CLASSIFICATION_TYPE = U
NORAD_CAT_ID   = 20775
ELEMENT_SET_NO = 999
REV_AT_EPOCH   = 79848
BSTAR          = .52454713E-3
MEAN_MOTION_DOT = .17004E-3
MEAN_MOTION_DDOT = 0

CCSDS_OMM_VERS = 2.0
CREATION_DATE  = 
ORIGINATOR     = 

OBJECT_NAME    = SL-8 R/B
OBJECT_ID      = 1991-006B
CENTER_NAME    = EARTH
REF_FRAME      = TEME
TIME_SYSTEM    = UTC
MEAN_ELEMENT_THEORY = SGP/SGP4

EPOCH          = 2025-12-26T21:42:49.283712
MEAN_MOTION    = 13.77492776
ECCENTRICITY   = .00213284
INCLINATION    = 82.9413
RA_OF_ASC_NODE = 224.1766
ARG_OF_PERICENTER = 237.7260
MEAN_ANOMALY   = 132.6220

EPHEMERIS_TYPE = 0
CLASSIFICATION_TYPE = U
NORAD_CAT_ID   = 21088
ELEMENT_SET_NO = 999
REV_AT_EPOCH   = 75405
BSTAR          = .87836993E-4
MEAN_MOTION_DOT = .103E-5
MEAN_MOTION_DDOT = 0

CCSDS_OMM_VERS = 2.0
CREATION_DATE  = 
ORIGINATOR     = 

OBJECT_NAME    = OKEAN-3
OBJECT_ID      = 1991-039A
CENTER_NAME    = EARTH
REF_FRAME      = TEME
TIME_SYSTEM    = UTC
MEAN_ELEMENT_THEORY = SGP/SGP4

EPOCH          = 2025-12-26T20:26:34.690560
MEAN_MOTION    = 15.04205132
ECCENTRICITY   = .00136464
INCLINATION    = 82.5161
RA_OF_ASC_NODE = 47.3868
ARG_OF_PERICENTER = 212.0196
MEAN_ANOMALY   = 148.0202

EPHEMERIS_TYPE = 0
CLASSIFICATION_TYPE = U
NORAD_CAT_ID   = 21397
ELEMENT_SET_NO = 999
REV_AT_EPOCH   = 85408
BSTAR          = .22476267E-3
MEAN_MOTION_DOT = .3154E-4
MEAN_MOTION_DDOT = 0

CCSDS_OMM_VERS = 2.0
CREATION_DATE  = 
ORIGINATOR     = 

OBJECT_NAME    = COSMOS 2151
OBJECT_ID      = 1991-042A
CENTER_NAME    = EARTH
REF_FRAME      = TEME
TIME_SYSTEM    = UTC
MEAN_ELEMENT_THEORY = SGP/SGP4

EPOCH          = 2025-12-26T21:38:13.024896
MEAN_MOTION    = 14.99741721
ECCENTRICITY   = .00114718
INCLINATION    = 82.4967
RA_OF_ASC_NODE = 153.8552
ARG_OF_PERICENTER = 309.6852
MEAN_ANOMALY   = 50.3360

EPHEMERIS_TYPE = 0
CLASSIFICATION_TYPE = U
NORAD_CAT_ID   = 21422
ELEMENT_SET_NO = 999
REV_AT_EPOCH   = 85228
BSTAR          = .23643695E-3
MEAN_MOTION_DOT = .2949E-4
MEAN_MOTION_DDOT = 0

